SatCatId,ObjectName,LaunchYear,OrbitalPeriod,LaunchMass,StatusCode,Inclination,Status,UcsData,OrbitClassEstimated,LaunchSiteCountry,Owner,UseType,Purpose,LaunchVehicleClass,TLE1,TLE2,MeanMotion,Eccentricity,OrbitClass
56746,OBJECT D,2023,95.45,-1.0,+,97.55,Active,0,LEO,Republic of Korea,South Korea,Unknown,Unknown,Unknown,1 56746U 23072D   23235.47977247  .00007146  00000+0  46001-3 0  9995,2 56746  97.5530  61.2268 0008990   5.5927 354.5400 15.08636280 13574,15.0863628,0.000899,LEO
56747,OBJECT E,2023,95.45,-1.0,+,97.55,Active,0,LEO,Republic of Korea,South Korea,Unknown,Unknown,Unknown,1 56747U 23072E   23235.47426447  .00006263  00000+0  40337-3 0  9992,2 56747  97.5535  61.2354 0009605   7.7198 352.4177 15.08661178 13576,15.08661178,0.0009605,LEO
56748,OBJECT F,2023,95.46,-1.0,+,97.53,Active,0,LEO,Republic of Korea,South Korea,Unknown,Unknown,Unknown,1 56748U 23072F   23235.47603119  .00005640  00000+0  36491-3 0  9990,2 56748  97.5328  60.9944 0009965   7.6934 352.4446 15.08534208 13576,15.08534208,0.0009965,LEO
56749,OBJECT G,2023,95.44,-1.0,+,97.53,Active,0,LEO,Republic of Korea,South Korea,Unknown,Unknown,Unknown,1 56749U 23072G   23235.46286482  .00006767  00000+0  43301-3 0  9999,2 56749  97.5341  61.0206 0010353  10.5877 349.5568 15.08862179 13570,15.08862179,0.0010353,LEO
56750,OBJECT H,2023,95.03,-1.0,+,97.54,Active,0,LEO,Republic of Korea,South Korea,Unknown,Unknown,Unknown,1 56750U 23072H   23235.46019698  .00004263  00000+0  22623-3 0  9997,2 56750  97.5400  61.9991 0034370 335.2425  24.7156 15.15379606 13637,15.15379606,0.003437,LEO
56753,TROPICS-03,2023,95.5,-1.0,+,32.74,Active,0,LEO,New Zealand,USA,Unknown,Unknown,Unknown,1 56753U 23073B   23234.47080325  .00010229  00000+0  64793-3 0  9999,2 56753  32.7371  10.1584 0011122 346.4318  13.6052 15.07892553 13316,15.07892553,0.0011122,LEO
56754,TROPICS-07,2023,95.42,-1.0,+,32.74,Active,0,LEO,New Zealand,USA,Unknown,Unknown,Unknown,1 56754U 23073C   23234.40351613  .00010003  00000+0  61228-3 0  9994,2 56754  32.7372   9.5938 0015310 339.0564  20.9477 15.09088826 13333,15.09088826,0.001531,LEO
56756,KONDOR FKA NO.1,2023,94.77,-1.0,+,97.44,Active,0,LEO,Russia,Russia/USSR,Unknown,Unknown,Unknown,1 56756U 23074A   23235.47812088  .00005675  00000+0  27030-3 0  9995,2 56756  97.4371  68.8748 0001761  91.8013 268.3424 15.19524790 13455,15.1952479,0.0001761,LEO
56757,ARABSAT-7B (BADR-8),2023,1593.53,-1.0,+,3.19,Active,0,HEO,USA,Arabsat,Unknown,Unknown,Unknown,1 56757U 23075A   23235.69241898 -.00000180  00000+0  00000+0 0  9997,2 56757   2.4626 135.7534 2889800 194.6643  64.0670  0.91686748   853,0.91686748,0.28898,HEO
56759,IRNSS-1J (NVS-01),2023,1436.14,-1.0,+,4.78,Active,0,GSO,India,India,Unknown,Unknown,Unknown,1 56759U 23076A   23235.04125975 -.00000326  00000+0  00000+0 0  9998,2 56759   4.7736 272.3011 0005656 339.4744 223.6543  1.00267747   888,1.00267747,0.0005656,GSO
56767,STARLINK-6197,2023,96.08,-1.0,+,70.0,Active,0,LEO,USA,USA,Unknown,Unknown,Unknown,1 56767U 23078A   23235.16667824 -.00016029  00000+0 -13384-2 0  9996,2 56767  70.0015 188.1664 0002800 272.7598  36.6899 14.98336546 13217,14.98336546,0.00028,LEO
56768,STARLINK-6198,2023,91.72,-1.0,+,70.0,Active,0,LEO,USA,USA,Unknown,Unknown,Unknown,1 56768U 23078B   23234.96498123  .00001471  00000+0  13997-4 0  9993,2 56768  69.9977 178.0112 0003616 271.4234  88.6548 15.69925619 13444,15.69925619,0.0003616,LEO
56769,STARLINK-5978,2023,96.11,-1.0,+,70.0,Active,0,LEO,USA,USA,Unknown,Unknown,Unknown,1 56769U 23078C   23235.10096519 -.00000796  00000+0 -58924-4 0  9994,2 56769  70.0007 188.2829 0002481 262.4088  97.6790 14.98330698 13207,14.98330698,0.0002481,LEO
56770,STARLINK-6342,2023,96.11,-1.0,+,70.0,Active,0,LEO,USA,USA,Unknown,Unknown,Unknown,1 56770U 23078D   23235.10513723 -.00000869  00000+0 -64995-4 0  9993,2 56770  70.0003 188.2974 0002865 269.2464  90.8367 14.98335629 13209,14.98335629,0.0002865,LEO
56771,STARLINK-6339,2023,91.72,-1.0,+,70.0,Active,0,LEO,USA,USA,Unknown,Unknown,Unknown,1 56771U 23078E   23235.28346548 -.00001592  00000+0 -11481-4 0  9998,2 56771  69.9989 177.1146 0003288 266.1491  93.9329 15.69912323 13498,15.69912323,0.0003288,LEO
56772,STARLINK-6275,2023,96.11,-1.0,+,70.0,Active,0,LEO,USA,USA,Unknown,Unknown,Unknown,1 56772U 23078F   23235.09678554 -.00000292  00000+0 -16688-4 0  9993,2 56772  70.0000 188.2675 0003010 270.9477  89.1337 14.98333552 13203,14.98333552,0.000301,LEO
56773,STARLINK-6296,2023,91.72,-1.0,+,70.0,Active,0,LEO,USA,USA,Unknown,Unknown,Unknown,1 56773U 23078G   23234.96476791  .00002422  00000+0  21905-4 0  9991,2 56773  69.9983 178.0085 0003628 275.8157  84.2625 15.69927736 13441,15.69927736,0.0003628,LEO
56774,STARLINK-6190,2023,96.11,-1.0,+,70.0,Active,0,LEO,USA,USA,Unknown,Unknown,Unknown,1 56774U 23078H   23235.09261574 -.00000146  00000+0 -44497-5 0  9993,2 56774  70.0003 188.2516 0002859 266.9425  93.1407 14.98329423 13205,14.98329423,0.0002859,LEO
56775,STARLINK-6292,2023,91.72,-1.0,+,70.0,Active,0,LEO,USA,USA,Unknown,Unknown,Unknown,1 56775U 23078J   23235.28282660  .00001744  00000+0  16269-4 0  9992,2 56775  69.9982 177.1117 0003208 268.5730  91.5098 15.69925459 13498,15.69925459,0.0003208,LEO
56776,STARLINK-6274,2023,91.72,-1.0,+,70.0,Active,0,LEO,USA,USA,Unknown,Unknown,Unknown,1 56776U 23078K   23234.96467435  .00070812  00000+0  58583-3 0  9998,2 56776  69.9995 178.0084 0003339 262.7658  97.3158 15.69919755 13444,15.69919755,0.0003339,LEO
56777,STARLINK-5582,2023,91.72,-1.0,+,70.0,Active,0,LEO,USA,USA,Unknown,Unknown,Unknown,1 56777U 23078L   23234.32676043  .00003809  00000+0  33424-4 0  9996,2 56777  70.0006 179.7988 0003233 268.6467  91.4358 15.69928660 13349,15.6992866,0.0003233,LEO
56778,STARLINK-6304,2023,91.72,-1.0,+,70.0,Active,0,LEO,USA,USA,Unknown,Unknown,Unknown,1 56778U 23078M   23234.32739199  .00002138  00000+0  19544-4 0  9990,2 56778  69.9996 179.8000 0003256 269.6380  90.4442 15.69925377 13346,15.69925377,0.0003256,LEO
56779,STARLINK-6231,2023,91.72,-1.0,+,70.0,Active,0,LEO,USA,USA,Unknown,Unknown,Unknown,1 56779U 23078N   23235.15454853  .00012101  00000+0  10221-3 0  9997,2 56779  69.9998 177.4657 0003756 270.4333  89.6433 15.69934492 13476,15.69934492,0.0003756,LEO
56780,STARLINK-5963,2023,91.72,-1.0,+,70.0,Active,0,LEO,USA,USA,Unknown,Unknown,Unknown,1 56780U 23078P   23235.28240384  .00002083  00000+0  19084-4 0  9990,2 56780  69.9989 177.1089 0003381 266.2551  93.8258 15.69929335 13497,15.69929335,0.0003381,LEO
56781,STARLINK-5989,2023,91.72,-1.0,+,70.0,Active,0,LEO,USA,USA,Unknown,Unknown,Unknown,1 56781U 23078Q   23235.28156162  .00001315  00000+0  12701-4 0  9997,2 56781  69.9993 177.1054 0003673 270.3811  89.6964 15.69926738 13495,15.69926738,0.0003673,LEO
56782,STARLINK-6352,2023,91.72,-1.0,+,70.0,Active,0,LEO,USA,USA,Unknown,Unknown,Unknown,1 56782U 23078R   23234.96445219  .00006363  00000+0  54626-4 0  9996,2 56782  69.9991 178.0052 0003497 268.8388  91.2407 15.69934063 13443,15.69934063,0.0003497,LEO
56783,STARLINK-6357,2023,91.72,-1.0,+,70.0,Active,0,LEO,USA,USA,Unknown,Unknown,Unknown,1 56783U 23078S   23234.96413779  .00002472  00000+0  22319-4 0  9994,2 56783  69.9983 178.0067 0002964 263.6529  96.4329 15.69923083 13449,15.69923083,0.0002964,LEO
56784,STARLINK-6354,2023,91.73,-1.0,+,70.0,Active,0,LEO,USA,USA,Unknown,Unknown,Unknown,1 56784U 23078T   23234.32718237  .00001192  00000+0  11681-4 0  9990,2 56784  70.0006 179.7997 0003141 266.9163  93.1673 15.69919797 13349,15.69919797,0.0003141,LEO
56785,STARLINK-5931,2023,91.72,-1.0,+,70.0,Active,0,LEO,USA,USA,Unknown,Unknown,Unknown,1 56785U 23078U   23234.96318866  .00000969  00000+0  98226-5 0  9997,2 56785  69.9988 178.0035 0003188 268.0796  92.0034 15.69926657 13440,15.69926657,0.0003188,LEO
56786,STARLINK-6341,2023,91.72,-1.0,+,70.0,Active,0,LEO,USA,USA,Unknown,Unknown,Unknown,1 56786U 23078V   23234.32686599  .00000482  00000+0  57754-5 0  9990,2 56786  69.9972 179.7973 0003527 265.6457  94.4336 15.69924751 13340,15.69924751,0.0003527,LEO
56787,STARLINK-6326,2023,91.72,-1.0,+,70.0,Active,0,LEO,USA,USA,Unknown,Unknown,Unknown,1 56787U 23078W   23234.32634035  .00001033  00000+0  10356-4 0  9998,2 56787  69.9992 179.7924 0003094 276.0814  84.0029 15.69921581 13343,15.69921581,0.0003094,LEO
56788,STARLINK-6336,2023,91.72,-1.0,+,70.0,Active,0,LEO,USA,USA,Unknown,Unknown,Unknown,1 56788U 23078X   23235.15486884  .00002509  00000+0  22636-4 0  9991,2 56788  69.9980 177.4675 0003117 265.7351  94.3488 15.69920907 13474,15.69920907,0.0003117,LEO
56789,STARLINK-6325,2023,91.72,-1.0,+,70.0,Active,0,LEO,USA,USA,Unknown,Unknown,Unknown,1 56789U 23078Y   23235.28103409  .00003603  00000+0  31712-4 0  9996,2 56789  69.9993 177.1048 0003563 265.8245  94.2543 15.69929695 13494,15.69929695,0.0003563,LEO
56790,STARLINK-6345,2023,91.72,-1.0,+,70.0,Active,0,LEO,USA,USA,Unknown,Unknown,Unknown,1 56790U 23078Z   23234.96361206  .00001232  00000+0  12013-4 0  9992,2 56790  69.9993 178.0045 0003351 269.0270  91.0541 15.69921858 13443,15.69921858,0.0003351,LEO
56791,STARLINK-5977,2023,91.72,-1.0,+,70.0,Active,0,LEO,USA,USA,Unknown,Unknown,Unknown,1 56791U 23078AA  23234.96276904  .00001000  00000+0  10087-4 0  9995,2 56791  69.9982 178.0034 0003569 263.6609  96.4180 15.69921973 13443,15.69921973,0.0003569,LEO
56792,STARLINK-6046,2023,91.72,-1.0,+,70.0,Active,0,LEO,USA,USA,Unknown,Unknown,Unknown,1 56792U 23078AB  23234.96329523  .00002133  00000+0  19504-4 0  9993,2 56792  69.9999 178.0042 0003250 277.2573  82.8253 15.69924779 13446,15.69924779,0.000325,LEO
56793,STARLINK-6052,2023,91.72,-1.0,+,70.0,Active,0,LEO,USA,USA,Unknown,Unknown,Unknown,1 56793U 23078AC  23235.15308580 -.00001073  00000+0 -71656-5 0  9997,2 56793  69.9995 177.4644 0002861 247.3810 112.7083 15.69908544 13472,15.69908544,0.0002861,LEO
